CTC1_L_00580007-03
1 35091U 24835MJ  26070.40840278  .00000000  00000+0  00000-0 0  9997
2 35091  60.0000 180.0000 0000000   0.0000 144.0000  7.15312845    11
CTC1_L_00580007-04
1 35092U 22602PW  26070.40840278  .00000000  00000+0  00000-0 0  9998
2 35092  60.0000 180.0000 0000000   0.0000 180.0000  7.15312845    12
CTC1_L_00580007-05
1 35093U 24960MS  26070.40840278  .00000000  00000+0  00000-0 0  9998
2 35093  60.0000 180.0000 0000000   0.0000 216.0000  7.15312845    13
CTC1_L_00580007-06
1 35094U 26261CH  26070.40840278  .00000000  00000+0  00000-0 0  9995
2 35094  60.0000 180.0000 0000000   0.0000 252.0000  7.15312845    14
CTC1_L_00580007-07
1 35095U 24955NP  26070.40840278  .00000000  00000+0  00000-0 0  9994
2 35095  60.0000 180.0000 0000000   0.0000 288.0000  7.15312845    14
CTC1_L_00580007-08
1 35096U 25395ZH  26070.40840278  .00000000  00000+0  00000-0 0  9994
2 35096  60.0000 180.0000 0000000   0.0000 324.0000  7.15312845    16
CTC1_L_00580007-09
1 35097U 24886XT  26070.40840278  .00000000  00000+0  00000-0 0  9999
2 35097  60.0000 180.0000 0000000   0.0000   0.0000  7.15312845    18
CTC1_L_00580007-10
1 35098U 22356TR  26070.40840278  .00000000  00000+0  00000-0 0  9990
2 35098  60.0000 180.0000 0000000   0.0000  36.0000  7.15312845    18
CTC1_L_00580008-01
1 35099U 24489JF  26070.40840278  .00000000  00000+0  00000-0 0  9990
2 35099  60.0000 210.0000 0000000   0.0000  84.0000  7.15312845    16
CTC1_L_00580008-02
1 35100U 22672YK  26070.40840278  .00000000  00000+0  00000-0 0  9995
2 35100  60.0000 210.0000 0000000   0.0000 120.0000  7.15312845    10
CTC1_L_00580008-03
1 35101U 25374IK  26070.40840278  .00000000  00000+0  00000-0 0  9998
2 35101  60.0000 210.0000 0000000   0.0000 156.0000  7.15312845    10
CTC1_L_00580008-04
1 35102U 26782OV  26070.40840278  .00000000  00000+0  00000-0 0  9993
2 35102  60.0000 210.0000 0000000   0.0000 192.0000  7.15312845    11
CTC1_L_00580008-05
1 35103U 25976DW  26070.40840278  .00000000  00000+0  00000-0 0  9998
2 35103  60.0000 210.0000 0000000   0.0000 228.0000  7.15312845    12
CTC1_L_00580008-06
1 35104U 24028CY  26070.40840278  .00000000  00000+0  00000-0 0  9996
2 35104  60.0000 210.0000 0000000   0.0000 264.0000  7.15312845    13
CTC1_L_00580008-07
1 35105U 24814AG  26070.40840278  .00000000  00000+0  00000-0 0  9990
2 35105  60.0000 210.0000 0000000   0.0000 300.0000  7.15312845    15
CTC1_L_00580008-08
1 35106U 25896N   26070.40840278  .00000000  00000+0  00000-0 0  9992
2 35106  60.0000 210.0000 0000000   0.0000 336.0000  7.15312845    15
CTC1_L_00580008-09
1 35107U 23266ZO  26070.40840278  .00000000  00000+0  00000-0 0  9992
2 35107  60.0000 210.0000 0000000   0.0000  12.0000  7.15312845    17
CTC1_L_00580008-10
1 35108U 24612IR  26070.40840278  .00000000  00000+0  00000-0 0  9999
2 35108  60.0000 210.0000 0000000   0.0000  48.0000  7.15312845    17
CTC1_L_00580009-01
1 35109U 26202XB  26070.40840278  .00000000  00000+0  00000-0 0  9997
2 35109  60.0000 240.0000 0000000   0.0000  96.0000  7.15312845    14
CTC1_L_00580009-02
1 35110U 23487UY  26070.40840278  .00000000  00000+0  00000-0 0  9991
2 35110  60.0000 240.0000 0000000   0.0000 132.0000  7.15312845    17
CTC1_L_00580009-03
1 35111U 24865MM  26070.40840278  .00000000  00000+0  00000-0 0  9993
2 35111  60.0000 240.0000 0000000   0.0000 168.0000  7.15312845    17
CTC1_L_00580009-04
1 35112U 24902NP  26070.40840278  .00000000  00000+0  00000-0 0  9996
2 35112  60.0000 240.0000 0000000   0.0000 204.0000  7.15312845    19
CTC1_L_00580009-05
1 35113U 26489ZN  26070.40840278  .00000000  00000+0  00000-0 0  9999
2 35113  60.0000 240.0000 0000000   0.0000 240.0000  7.15312845    10
CTC1_L_00580009-06
1 35114U 24708JN  26070.40840278  .00000000  00000+0  00000-0 0  9992
2 35114  60.0000 240.0000 0000000   0.0000 276.0000  7.15312845    10
CTC1_L_00580009-07
1 35115U 24538XL  26070.40840278  .00000000  00000+0  00000-0 0  9994
2 35115  60.0000 240.0000 0000000   0.0000 312.0000  7.15312845    12
CTC1_L_00580009-08
1 35116U 23029IL  26070.40840278  .00000000  00000+0  00000-0 0  9999
2 35116  60.0000 240.0000 0000000   0.0000 348.0000  7.15312845    12
CTC1_L_00580009-09
1 35117U 23944VQ  26070.40840278  .00000000  00000+0  00000-0 0  9996
2 35117  60.0000 240.0000 0000000   0.0000  24.0000  7.15312845    14
CTC1_L_00580009-10
1 35118U 24502J   26070.40840278  .00000000  00000+0  00000-0 0  9998
2 35118  60.0000 240.0000 0000000   0.0000  60.0000  7.15312845    15
CTC1_L_00580010-01
1 35119U 22816RS  26070.40840278  .00000000  00000+0  00000-0 0  9995
2 35119  60.0000 270.0000 0000000   0.0000 108.0000  7.15312845    12
CTC1_L_00580010-02
1 35120U 22209RR  26070.40840278  .00000000  00000+0  00000-0 0  9993
2 35120  60.0000 270.0000 0000000   0.0000 144.0000  7.15312845    14
CTC1_L_00580010-03
1 35121U 22409QK  26070.40840278  .00000000  00000+0  00000-0 0  9996
2 35121  60.0000 270.0000 0000000   0.0000 180.0000  7.15312845    15
CTC1_L_00580010-04
1 35122U 24124SX  26070.40840278  .00000000  00000+0  00000-0 0  9993
2 35122  60.0000 270.0000 0000000   0.0000 216.0000  7.15312845    16
CTC1_L_00580010-05
1 35123U 22591ZG  26070.40840278  .00000000  00000+0  00000-0 0  9990
2 35123  60.0000 270.0000 0000000   0.0000 252.0000  7.15312845    17
CTC1_L_00580010-06
1 35124U 26901HQ  26070.40840278  .00000000  00000+0  00000-0 0  9990
2 35124  60.0000 270.0000 0000000   0.0000 288.0000  7.15312845    17
CTC1_L_00580010-07
1 35125U 22288IJ  26070.40840278  .00000000  00000+0  00000-0 0  9995
2 35125  60.0000 270.0000 0000000   0.0000 324.0000  7.15312845    19
CTC1_L_00580010-08
1 35126U 24943CB  26070.40840278  .00000000  00000+0  00000-0 0  9996
2 35126  60.0000 270.0000 0000000   0.0000   0.0000  7.15312845    11
CTC1_L_00580010-09
1 35127U 23339AJ  26070.40840278  .00000000  00000+0  00000-0 0  9995
2 35127  60.0000 270.0000 0000000   0.0000  36.0000  7.15312845    11
CTC1_L_00580010-10
1 35128U 23150LX  26070.40840278  .00000000  00000+0  00000-0 0  9997
2 35128  60.0000 270.0000 0000000   0.0000  72.0000  7.15312845    12
CTC1_L_00580011-01
1 35129U 25306BW  26070.40840278  .00000000  00000+0  00000-0 0  9993
2 35129  60.0000 300.0000 0000000   0.0000 120.0000  7.15312845    11
CTC1_L_00580011-02
1 35130U 26294GH  26070.40840278  .00000000  00000+0  00000-0 0  9992
2 35130  60.0000 300.0000 0000000   0.0000 156.0000  7.15312845    12
CTC1_L_00580011-03
1 35131U 25890CU  26070.40840278  .00000000  00000+0  00000-0 0  9994
2 35131  60.0000 300.0000 0000000   0.0000 192.0000  7.15312845    13
CTC1_L_00580011-04
1 35132U 23029MH  26070.40840278  .00000000  00000+0  00000-0 0  9997
2 35132  60.0000 300.0000 0000000   0.0000 228.0000  7.15312845    14
CTC1_L_00580011-05
1 35133U 23743WL  26070.40840278  .00000000  00000+0  00000-0 0  9991
2 35133  60.0000 300.0000 0000000   0.0000 264.0000  7.15312845    15
CTC1_L_00580011-06
1 35134U 25126TP  26070.40840278  .00000000  00000+0  00000-0 0  9999
2 35134  60.0000 300.0000 0000000   0.0000 300.0000  7.15312845    17
CTC1_L_00580011-07
1 35135U 22986RE  26070.40840278  .00000000  00000+0  00000-0 0  9991
2 35135  60.0000 300.0000 0000000   0.0000 336.0000  7.15312845    17
CTC1_L_00580011-08
1 35136U 26260YV  26070.40840278  .00000000  00000+0  00000-0 0  9991
2 35136  60.0000 300.0000 0000000   0.0000  12.0000  7.15312845    19
CTC1_L_00580011-09
1 35137U 25866DT  26070.40840278  .00000000  00000+0  00000-0 0  9993
2 35137  60.0000 300.0000 0000000   0.0000  48.0000  7.15312845    19
CTC1_L_00580011-10
1 35138U 22562IZ  26070.40840278  .00000000  00000+0  00000-0 0  9994
2 35138  60.0000 300.0000 0000000   0.0000  84.0000  7.15312845    10
CTC1_L_00580012-01
1 35139U 25569KJ  26070.40840278  .00000000  00000+0  00000-0 0  9995
2 35139  60.0000 330.0000 0000000   0.0000 132.0000  7.15312845    18
CTC1_L_00580012-02
1 35140U 24747CT  26070.40840278  .00000000  00000+0  00000-0 0  9994
2 35140  60.0000 330.0000 0000000   0.0000 168.0000  7.15312845    19
CTC1_L_00580012-03
1 35141U 23888HG  26070.40840278  .00000000  00000+0  00000-0 0  9990
2 35141  60.0000 330.0000 0000000   0.0000 204.0000  7.15312845    11
CTC1_L_00580012-04
1 35142U 25907PG  26070.40840278  .00000000  00000+0  00000-0 0  9995
2 35142  60.0000 330.0000 0000000   0.0000 240.0000  7.15312845    12
CTC1_L_00580012-05
1 35143U 25815YD  26070.40840278  .00000000  00000+0  00000-0 0  9994
2 35143  60.0000 330.0000 0000000   0.0000 276.0000  7.15312845    12
CTC1_L_00580012-06
1 35144U 23049Y   26070.40840278  .00000000  00000+0  00000-0 0  9992
2 35144  60.0000 330.0000 0000000   0.0000 312.0000  7.15312845    14
CTC1_L_00580012-07
1 35145U 25522KL  26070.40840278  .00000000  00000+0  00000-0 0  9991
2 35145  60.0000 330.0000 0000000   0.0000 348.0000  7.15312845    14
CTC1_L_00580012-08
1 35146U 23235QY  26070.40840278  .00000000  00000+0  00000-0 0  9991
2 35146  60.0000 330.0000 0000000   0.0000  24.0000  7.15312845    16
CTC1_L_00580012-09
1 35147U 23871OG  26070.40840278  .00000000  00000+0  00000-0 0  9998
2 35147  60.0000 330.0000 0000000   0.0000  60.0000  7.15312845    17
CTC1_L_00580012-10
1 35148U 25735HG  26070.40840278  .00000000  00000+0  00000-0 0  9990
2 35148  60.0000 330.0000 0000000   0.0000  96.0000  7.15312845    17
